<?xml version="1.0" encoding="UTF-8"?>
<ndm xmlns:xsi="http://www.w3.org/2001/XMLSchema-instance" xsi:noNamespaceSchemaLocation="https://sanaregistry.org/r/ndmxml_unqualified/ndmxml-2.0.0-master-2.0.xsd">
<omm id="CCSDS_OMM_VERS" version="2.0">
<header><CREATION_DATE/><ORIGINATOR/></header><body><segment><metadata><OBJECT_NAME>ONEWEB-0203</OBJECT_NAME><OBJECT_ID>2021-031AB</OBJECT_ID><CENTER_NAME>EARTH</CENTER_NAME><REF_FRAME>TEME</REF_FRAME><TIME_SYSTEM>UTC</TIME_SYSTEM><MEAN_ELEMENT_THEORY>SGP4</MEAN_ELEMENT_THEORY></metadata><data><meanElements><EPOCH>2023-11-03T18:05:58.148736</EPOCH><MEAN_MOTION>13.14392444</MEAN_MOTION><ECCENTRICITY>.0001096</ECCENTRICITY><INCLINATION>87.8939</INCLINATION><RA_OF_ASC_NODE>120.0855</RA_OF_ASC_NODE><ARG_OF_PERICENTER>72.8421</ARG_OF_PERICENTER><MEAN_ANOMALY>287.2828</MEAN_ANOMALY></meanElements><tleParameters><EPHEMERIS_TYPE>0</EPHEMERIS_TYPE><CLASSIFICATION_TYPE>U</CLASSIFICATION_TYPE><NORAD_CAT_ID>48235</NORAD_CAT_ID><ELEMENT_SET_NO>999</ELEMENT_SET_NO><REV_AT_EPOCH>12262</REV_AT_EPOCH><BSTAR>-.35161E-1</BSTAR><MEAN_MOTION_DOT>-.12983E-3</MEAN_MOTION_DOT><MEAN_MOTION_DDOT>0</MEAN_MOTION_DDOT></tleParameters></data></segment></body></omm>
<omm id="CCSDS_OMM_VERS" version="2.0">
<header><CREATION_DATE/><ORIGINATOR/></header><body><segment><metadata><OBJECT_NAME>ONEWEB-0197</OBJECT_NAME><OBJECT_ID>2021-031AC</OBJECT_ID><CENTER_NAME>EARTH</CENTER_NAME><REF_FRAME>TEME</REF_FRAME><TIME_SYSTEM>UTC</TIME_SYSTEM><MEAN_ELEMENT_THEORY>SGP4</MEAN_ELEMENT_THEORY></metadata><data><meanElements><EPOCH>2023-11-03T12:18:16.590528</EPOCH><MEAN_MOTION>13.14549498</MEAN_MOTION><ECCENTRICITY>.0001704</ECCENTRICITY><INCLINATION>87.8935</INCLINATION><RA_OF_ASC_NODE>120.1416</RA_OF_ASC_NODE><ARG_OF_PERICENTER>91.9245</ARG_OF_PERICENTER><MEAN_ANOMALY>268.2080</MEAN_ANOMALY></meanElements><tleParameters><EPHEMERIS_TYPE>0</EPHEMERIS_TYPE><CLASSIFICATION_TYPE>U</CLASSIFICATION_TYPE><NORAD_CAT_ID>48236</NORAD_CAT_ID><ELEMENT_SET_NO>999</ELEMENT_SET_NO><REV_AT_EPOCH>12250</REV_AT_EPOCH><BSTAR>.15293E-1</BSTAR><MEAN_MOTION_DOT>.569E-4</MEAN_MOTION_DOT><MEAN_MOTION_DDOT>0</MEAN_MOTION_DDOT></tleParameters></data></segment></body></omm>
<omm id="CCSDS_OMM_VERS" version="2.0">
<header><CREATION_DATE/><ORIGINATOR/></header><body><segment><metadata><OBJECT_NAME>ONEWEB-0194</OBJECT_NAME><OBJECT_ID>2021-031AD</OBJECT_ID><CENTER_NAME>EARTH</CENTER_NAME><REF_FRAME>TEME</REF_FRAME><TIME_SYSTEM>UTC</TIME_SYSTEM><MEAN_ELEMENT_THEORY>SGP4</MEAN_ELEMENT_THEORY></metadata><data><meanElements><EPOCH>2023-11-03T18:51:28.937376</EPOCH><MEAN_MOTION>13.14477297</MEAN_MOTION><ECCENTRICITY>.0001556</ECCENTRICITY><INCLINATION>87.8935</INCLINATION><RA_OF_ASC_NODE>120.0771</RA_OF_ASC_NODE><ARG_OF_PERICENTER>73.5721</ARG_OF_PERICENTER><MEAN_ANOMALY>286.5580</MEAN_ANOMALY></meanElements><tleParameters><EPHEMERIS_TYPE>0</EPHEMERIS_TYPE><CLASSIFICATION_TYPE>U</CLASSIFICATION_TYPE><NORAD_CAT_ID>48237</NORAD_CAT_ID><ELEMENT_SET_NO>999</ELEMENT_SET_NO><REV_AT_EPOCH>12271</REV_AT_EPOCH><BSTAR>-.68279E-2</BSTAR><MEAN_MOTION_DOT>-.2517E-4</MEAN_MOTION_DOT><MEAN_MOTION_DDOT>0</MEAN_MOTION_DDOT></tleParameters></data></segment></body></omm>
<omm id="CCSDS_OMM_VERS" version="2.0">
<header><CREATION_DATE/><ORIGINATOR/></header><body><segment><metadata><OBJECT_NAME>ONEWEB-0193</OBJECT_NAME><OBJECT_ID>2021-031AE</OBJECT_ID><CENTER_NAME>EARTH</CENTER_NAME><REF_FRAME>TEME</REF_FRAME><TIME_SYSTEM>UTC</TIME_SYSTEM><MEAN_ELEMENT_THEORY>SGP4</MEAN_ELEMENT_THEORY></metadata><data><meanElements><EPOCH>2023-11-03T11:57:17.064288</EPOCH><MEAN_MOTION>13.14538443</MEAN_MOTION><ECCENTRICITY>.000158</ECCENTRICITY><INCLINATION>87.8948</INCLINATION><RA_OF_ASC_NODE>120.1451</RA_OF_ASC_NODE><ARG_OF_PERICENTER>89.3896</ARG_OF_PERICENTER><MEAN_ANOMALY>270.7415</MEAN_ANOMALY></meanElements><tleParameters><EPHEMERIS_TYPE>0</EPHEMERIS_TYPE><CLASSIFICATION_TYPE>U</CLASSIFICATION_TYPE><NORAD_CAT_ID>48238</NORAD_CAT_ID><ELEMENT_SET_NO>999</ELEMENT_SET_NO><REV_AT_EPOCH>12262</REV_AT_EPOCH><BSTAR>.10961E-1</BSTAR><MEAN_MOTION_DOT>.408E-4</MEAN_MOTION_DOT><MEAN_MOTION_DDOT>0</MEAN_MOTION_DDOT></tleParameters></data></segment></body></omm>
<omm id="CCSDS_OMM_VERS" version="2.0">
<header><CREATION_DATE/><ORIGINATOR/></header><body><segment><metadata><OBJECT_NAME>ONEWEB-0191</OBJECT_NAME><OBJECT_ID>2021-031AF</OBJECT_ID><CENTER_NAME>EARTH</CENTER_NAME><REF_FRAME>TEME</REF_FRAME><TIME_SYSTEM>UTC</TIME_SYSTEM><MEAN_ELEMENT_THEORY>SGP4</MEAN_ELEMENT_THEORY></metadata><data><meanElements><EPOCH>2023-11-03T12:12:33.793344</EPOCH><MEAN_MOTION>13.14502693</MEAN_MOTION><ECCENTRICITY>.000145</ECCENTRICITY><INCLINATION>87.8946</INCLINATION><RA_OF_ASC_NODE>120.1255</RA_OF_ASC_NODE><ARG_OF_PERICENTER>85.6287</ARG_OF_PERICENTER><MEAN_ANOMALY>274.5008</MEAN_ANOMALY></meanElements><tleParameters><EPHEMERIS_TYPE>0</EPHEMERIS_TYPE><CLASSIFICATION_TYPE>U</CLASSIFICATION_TYPE><NORAD_CAT_ID>48239</NORAD_CAT_ID><ELEMENT_SET_NO>999</ELEMENT_SET_NO><REV_AT_EPOCH>12248</REV_AT_EPOCH><BSTAR>-.11845E-2</BSTAR><MEAN_MOTION_DOT>-.426E-5</MEAN_MOTION_DOT><MEAN_MOTION_DDOT>0</MEAN_MOTION_DDOT></tleParameters></data></segment></body></omm>
<omm id="CCSDS_OMM_VERS" version="2.0">
<header><CREATION_DATE/><ORIGINATOR/></header><body><segment><metadata><OBJECT_NAME>ONEWEB-0195</OBJECT_NAME><OBJECT_ID>2021-031AG</OBJECT_ID><CENTER_NAME>EARTH</CENTER_NAME><REF_FRAME>TEME</REF_FRAME><TIME_SYSTEM>UTC</TIME_SYSTEM><MEAN_ELEMENT_THEORY>SGP4</MEAN_ELEMENT_THEORY></metadata><data><meanElements><EPOCH>2023-11-03T17:09:21.419136</EPOCH><MEAN_MOTION>13.14559490</MEAN_MOTION><ECCENTRICITY>.000128</ECCENTRICITY><INCLINATION>87.8943</INCLINATION><RA_OF_ASC_NODE>120.0849</RA_OF_ASC_NODE><ARG_OF_PERICENTER>105.7649</ARG_OF_PERICENTER><MEAN_ANOMALY>254.3622</MEAN_ANOMALY></meanElements><tleParameters><EPHEMERIS_TYPE>0</EPHEMERIS_TYPE><CLASSIFICATION_TYPE>U</CLASSIFICATION_TYPE><NORAD_CAT_ID>48240</NORAD_CAT_ID><ELEMENT_SET_NO>999</ELEMENT_SET_NO><REV_AT_EPOCH>12249</REV_AT_EPOCH><BSTAR>.17583E-1</BSTAR><MEAN_MOTION_DOT>.6542E-4</MEAN_MOTION_DOT><MEAN_MOTION_DDOT>0</MEAN_MOTION_DDOT></tleParameters></data></segment></body></omm>
<omm id="CCSDS_OMM_VERS" version="2.0">
<header><CREATION_DATE/><ORIGINATOR/></header><body><segment><metadata><OBJECT_NAME>ONEWEB-0201</OBJECT_NAME><OBJECT_ID>2021-031AH</OBJECT_ID><CENTER_NAME>EARTH</CENTER_NAME><REF_FRAME>TEME</REF_FRAME><TIME_SYSTEM>UTC</TIME_SYSTEM><MEAN_ELEMENT_THEORY>SGP4</MEAN_ELEMENT_THEORY></metadata><data><meanElements><EPOCH>2023-11-03T13:24:05.982912</EPOCH><MEAN_MOTION>13.14502349</MEAN_MOTION><ECCENTRICITY>.0001464</ECCENTRICITY><INCLINATION>87.8937</INCLINATION><RA_OF_ASC_NODE>120.1515</RA_OF_ASC_NODE><ARG_OF_PERICENTER>95.0699</ARG_OF_PERICENTER><MEAN_ANOMALY>265.0598</MEAN_ANOMALY></meanElements><tleParameters><EPHEMERIS_TYPE>0</EPHEMERIS_TYPE><CLASSIFICATION_TYPE>U</CLASSIFICATION_TYPE><NORAD_CAT_ID>48241</NORAD_CAT_ID><ELEMENT_SET_NO>999</ELEMENT_SET_NO><REV_AT_EPOCH>12270</REV_AT_EPOCH><BSTAR>.16298E-3</BSTAR><MEAN_MOTION_DOT>.73E-6</MEAN_MOTION_DOT><MEAN_MOTION_DDOT>0</MEAN_MOTION_DDOT></tleParameters></data></segment></body></omm>
<omm id="CCSDS_OMM_VERS" version="2.0">
<header><CREATION_DATE/><ORIGINATOR/></header><body><segment><metadata><OBJECT_NAME>ONEWEB-0207</OBJECT_NAME><OBJECT_ID>2021-031AJ</OBJECT_ID><CENTER_NAME>EARTH</CENTER_NAME><REF_FRAME>TEME</REF_FRAME><TIME_SYSTEM>UTC</TIME_SYSTEM><MEAN_ELEMENT_THEORY>SGP4</MEAN_ELEMENT_THEORY></metadata><data><meanElements><EPOCH>2023-11-03T18:16:36.870240</EPOCH><MEAN_MOTION>13.14410817</MEAN_MOTION><ECCENTRICITY>.0002304</ECCENTRICITY><INCLINATION>87.8936</INCLINATION><RA_OF_ASC_NODE>120.0788</RA_OF_ASC_NODE><ARG_OF_PERICENTER>97.6153</ARG_OF_PERICENTER><MEAN_ANOMALY>262.5238</MEAN_ANOMALY></meanElements><tleParameters><EPHEMERIS_TYPE>0</EPHEMERIS_TYPE><CLASSIFICATION_TYPE>U</CLASSIFICATION_TYPE><NORAD_CAT_ID>48242</NORAD_CAT_ID><ELEMENT_SET_NO>999</ELEMENT_SET_NO><REV_AT_EPOCH>12264</REV_AT_EPOCH><BSTAR>-.29663E-1</BSTAR><MEAN_MOTION_DOT>-.10957E-3</MEAN_MOTION_DOT><MEAN_MOTION_DDOT>0</MEAN_MOTION_DDOT></tleParameters></data></segment></body></omm>
<omm id="CCSDS_OMM_VERS" version="2.0">
<header><CREATION_DATE/><ORIGINATOR/></header><body><segment><metadata><OBJECT_NAME>ONEWEB-0208</OBJECT_NAME><OBJECT_ID>2021-031AK</OBJECT_ID><CENTER_NAME>EARTH</CENTER_NAME><REF_FRAME>TEME</REF_FRAME><TIME_SYSTEM>UTC</TIME_SYSTEM><MEAN_ELEMENT_THEORY>SGP4</MEAN_ELEMENT_THEORY></metadata><data><meanElements><EPOCH>2023-11-03T12:15:41.303808</EPOCH><MEAN_MOTION>13.14467225</MEAN_MOTION><ECCENTRICITY>.0001062</ECCENTRICITY><INCLINATION>87.8935</INCLINATION><RA_OF_ASC_NODE>120.1434</RA_OF_ASC_NODE><ARG_OF_PERICENTER>104.5957</ARG_OF_PERICENTER><MEAN_ANOMALY>255.5290</MEAN_ANOMALY></meanElements><tleParameters><EPHEMERIS_TYPE>0</EPHEMERIS_TYPE><CLASSIFICATION_TYPE>U</CLASSIFICATION_TYPE><NORAD_CAT_ID>48243</NORAD_CAT_ID><ELEMENT_SET_NO>999</ELEMENT_SET_NO><REV_AT_EPOCH>12262</REV_AT_EPOCH><BSTAR>-.1261E-1</BSTAR><MEAN_MOTION_DOT>-.4657E-4</MEAN_MOTION_DOT><MEAN_MOTION_DDOT>0</MEAN_MOTION_DDOT></tleParameters></data></segment></body></omm>

</ndm>
